{
  "type": "FeatureCollection",
  "features": [
    {
      "type": "Feature",
      "properties": {
        "norad_id": 34003,
        "name": "COSMOS 2251 DEB",
        "group": "cosmos-2251-debris",
        "lat": -67.51932886020377,
        "lon": 124.47904541677964,
        "alt_km": 1038.8457175187432,
        "timestamp": "2025-12-27T03:58:44.540345+00:00",
        "meta_object_name": "COSMOS 2251 DEB",
        "meta_object_id": "1993-036GN",
        "meta_epoch": "2025-12-25T19:31:29.334144",
        "meta_mean_motion": 13.84221361,
        "meta_eccentricity": 0.02753646,
        "meta_inclination": 74.0775,
        "meta_ra_of_asc_node": 263.1391,
        "meta_arg_of_pericenter": 12.2095,
        "meta_mean_anomaly": 348.5523,
        "meta_ephemeris_type": 0,
        "meta_classification_type": "U",
        "meta_norad_cat_id": 34003,
        "meta_element_set_no": 999,
        "meta_rev_at_epoch": 84606,
        "meta_bstar": 0.00186549,
        "meta_mean_motion_dot": 2.77e-05,
        "meta_mean_motion_ddot": 0,
        "tle_line1": "1 34003U 93036GN  25359.81353396  .00002770  00000+0  18655-2 0  9995",
        "tle_line2": "2 34003  74.0775 263.1391 0275364  12.2095 348.5523 13.84221361846068"
      },
      "geometry": {
        "type": "Point",
        "coordinates": [
          124.47904541677964,
          -67.51932886020377
        ]
      }
    },
    {
      "type": "Feature",
      "properties": {
        "norad_id": 34004,
        "name": "COSMOS 2251 DEB",
        "group": "cosmos-2251-debris",
        "lat": 21.429386032229875,
        "lon": -67.4913948734026,
        "alt_km": 726.2013219220134,
        "timestamp": "2025-12-27T03:58:44.540354+00:00",
        "meta_object_name": "COSMOS 2251 DEB",
        "meta_object_id": "1993-036GP",
        "meta_epoch": "2025-12-26T19:35:32.405856",
        "meta_mean_motion": 14.49136008,
        "meta_eccentricity": 0.0033418,
        "meta_inclination": 74.0355,
        "meta_ra_of_asc_node": 286.7126,
        "meta_arg_of_pericenter": 297.1921,
        "meta_mean_anomaly": 62.5834,
        "meta_ephemeris_type": 0,
        "meta_classification_type": "U",
        "meta_norad_cat_id": 34004,
        "meta_element_set_no": 999,
        "meta_rev_at_epoch": 88234,
        "meta_bstar": 0.0012572,
        "meta_mean_motion_dot": 4.79e-05,
        "meta_mean_motion_ddot": 0,
        "tle_line1": "1 34004U 93036GP  25360.81634729  .00004790  00000+0  12572-2 0  9996",
        "tle_line2": "2 34004  74.0355 286.7126 0033418 297.1921  62.5834 14.49136008882348"
      },
      "geometry": {
        "type": "Point",
        "coordinates": [
          -67.4913948734026,
          21.429386032229875
        ]
      }
    },
    {
      "type": "Feature",
      "properties": {
        "norad_id": 34005,
        "name": "COSMOS 2251 DEB",
        "group": "cosmos-2251-debris",
        "lat": -20.010061316200222,
        "lon": 12.97478595019135,
        "alt_km": 765.411351543341,
        "timestamp": "2025-12-27T03:58:44.540363+00:00",
        "meta_object_name": "COSMOS 2251 DEB",
        "meta_object_id": "1993-036GQ",
        "meta_epoch": "2025-12-26T15:42:50.283360",
        "meta_mean_motion": 14.40313987,
        "meta_eccentricity": 0.0021251,
        "meta_inclination": 74.0432,
        "meta_ra_of_asc_node": 187.938,
        "meta_arg_of_pericenter": 303.8564,
        "meta_mean_anomaly": 128.3567,
        "meta_ephemeris_type": 0,
        "meta_classification_type": "U",
        "meta_norad_cat_id": 34005,
        "meta_element_set_no": 999,
        "meta_rev_at_epoch": 88579,
        "meta_bstar": 0.00011286,
        "meta_mean_motion_dot": 3.32e-06,
        "meta_mean_motion_ddot": 0,
        "tle_line1": "1 34005U 93036GQ  25360.65474865  .00000332  00000+0  11286-3 0  9992",
        "tle_line2": "2 34005  74.0432 187.9380 0021251 303.8564 128.3567 14.40313987885799"
      },
      "geometry": {
        "type": "Point",
        "coordinates": [
          12.97478595019135,
          -20.010061316200222
        ]
      }
    },
    {
      "type": "Feature",
      "properties": {
        "norad_id": 34006,
        "name": "COSMOS 2251 DEB",
        "group": "cosmos-2251-debris",
        "lat": 68.91865757120334,
        "lon": 162.0948765050347,
        "alt_km": 566.0908291421838,
        "timestamp": "2025-12-27T03:58:44.540373+00:00",
        "meta_object_name": "COSMOS 2251 DEB",
        "meta_object_id": "1993-036GR",
        "meta_epoch": "2025-12-25T18:35:55.863168",
        "meta_mean_motion": 14.95648156,
        "meta_eccentricity": 0.00117121,
        "meta_inclination": 74.0532,
        "meta_ra_of_asc_node": 117.0187,
        "meta_arg_of_pericenter": 46.7358,
        "meta_mean_anomaly": 103.407,
        "meta_ephemeris_type": 0,
        "meta_classification_type": "U",
        "meta_norad_cat_id": 34006,
        "meta_element_set_no": 999,
        "meta_rev_at_epoch": 88863,
        "meta_bstar": 0.0036326632,
        "meta_mean_motion_dot": 0.00040646,
        "meta_mean_motion_ddot": 0,
        "tle_line1": "1 34006U 93036GR  25359.77495212  .00040646  00000+0  36327-2 0  9997",
        "tle_line2": "2 34006  74.0532 117.0187 0011712  46.7358 103.4070 14.95648156888633"
      },
      "geometry": {
        "type": "Point",
        "coordinates": [
          162.0948765050347,
          68.91865757120334
        ]
      }
    },
    {
      "type": "Feature",
      "properties": {
        "norad_id": 34007,
        "name": "COSMOS 2251 DEB",
        "group": "cosmos-2251-debris",
        "lat": -53.42041958384365,
        "lon": 161.83997418448195,
        "alt_km": 710.2619658457706,
        "timestamp": "2025-12-27T03:58:44.540382+00:00",
        "meta_object_name": "COSMOS 2251 DEB",
        "meta_object_id": "1993-036GS",
        "meta_epoch": "2025-12-26T05:35:55.099104",
        "meta_mean_motion": 14.64882321,
        "meta_eccentricity": 0.0044258,
        "meta_inclination": 74.0197,
        "meta_ra_of_asc_node": 320.9195,
        "meta_arg_of_pericenter": 91.4788,
        "meta_mean_anomaly": 269.1451,
        "meta_ephemeris_type": 0,
        "meta_classification_type": "U",
        "meta_norad_cat_id": 34007,
        "meta_element_set_no": 999,
        "meta_rev_at_epoch": 89277,
        "meta_bstar": 0.00080446,
        "meta_mean_motion_dot": 4.333e-05,
        "meta_mean_motion_ddot": 0,
        "tle_line1": "1 34007U 93036GS  25360.23327661  .00004333  00000+0  80446-3 0  9998",
        "tle_line2": "2 34007  74.0197 320.9195 0044258  91.4788 269.1451 14.64882321892773"
      },
      "geometry": {
        "type": "Point",
        "coordinates": [
          161.83997418448195,
          -53.42041958384365
        ]
      }
    },
    {
      "type": "Feature",
      "properties": {
        "norad_id": 34008,
        "name": "COSMOS 2251 DEB",
        "group": "cosmos-2251-debris",
        "lat": 72.7759336734198,
        "lon": 56.72341332099067,
        "alt_km": 790.4016956374298,
        "timestamp": "2025-12-27T03:58:44.540391+00:00",
        "meta_object_name": "COSMOS 2251 DEB",
        "meta_object_id": "1993-036GT",
        "meta_epoch": "2025-12-26T21:06:10.662048",
        "meta_mean_motion": 14.33155979,
        "meta_eccentricity": 0.002468,
        "meta_inclination": 74.035,
        "meta_ra_of_asc_node": 304.6769,
        "meta_arg_of_pericenter": 297.6671,
        "meta_mean_anomaly": 121.1664,
        "meta_ephemeris_type": 0,
        "meta_classification_type": "U",
        "meta_norad_cat_id": 34008,
        "meta_element_set_no": 999,
        "meta_rev_at_epoch": 88167,
        "meta_bstar": 0.00013316,
        "meta_mean_motion_dot": 3.41e-06,
        "meta_mean_motion_ddot": 0,
        "tle_line1": "1 34008U 93036GT  25360.87929007  .00000341  00000+0  13316-3 0  9998",
        "tle_line2": "2 34008  74.0350 304.6769 0024680 297.6671 121.1664 14.33155979881677"
      },
      "geometry": {
        "type": "Point",
        "coordinates": [
          56.72341332099067,
          72.7759336734198
        ]
      }
    },
    {
      "type": "Feature",
      "properties": {
        "norad_id": 34009,
        "name": "COSMOS 2251 DEB",
        "group": "cosmos-2251-debris",
        "lat": 41.260045785353874,
        "lon": 116.03132252139085,
        "alt_km": 787.0591491781115,
        "timestamp": "2025-12-27T03:58:44.540401+00:00",
        "meta_object_name": "COSMOS 2251 DEB",
        "meta_object_id": "1993-036GU",
        "meta_epoch": "2025-12-26T07:48:31.777056",
        "meta_mean_motion": 14.33233263,
        "meta_eccentricity": 0.0027046,
        "meta_inclination": 74.0378,
        "meta_ra_of_asc_node": 312.1087,
        "meta_arg_of_pericenter": 17.8871,
        "meta_mean_anomaly": 103.9021,
        "meta_ephemeris_type": 0,
        "meta_classification_type": "U",
        "meta_norad_cat_id": 34009,
        "meta_element_set_no": 999,
        "meta_rev_at_epoch": 88140,
        "meta_bstar": 0.00016577,
        "meta_mean_motion_dot": 4.32e-06,
        "meta_mean_motion_ddot": 0,
        "tle_line1": "1 34009U 93036GU  25360.32536779  .00000432  00000+0  16577-3 0  9992",
        "tle_line2": "2 34009  74.0378 312.1087 0027046  17.8871 103.9021 14.33233263881407"
      },
      "geometry": {
        "type": "Point",
        "coordinates": [
          116.03132252139085,
          41.260045785353874
        ]
      }
    }
  ]
}